[{"OBJECT_NAME":"STARLINK-1680","OBJECT_ID":"2020-070AC","EPOCH":"2026-03-10T00:00:02.999808","MEAN_MOTION":15.76401356,"ECCENTRICITY":0.00075058,"INCLINATION":53.0447,"RA_OF_ASC_NODE":107.962,"ARG_OF_PERICENTER":15.0582,"MEAN_ANOMALY":219.3714,"EPHEMERIS_TYPE":0,"CLASSIFICATION_TYPE":"U","NORAD_CAT_ID":46558,"ELEMENT_SET_NO":999,"REV_AT_EPOCH":596,"BSTAR":0.0012210481,"MEAN_MOTION_DOT":0.00201352,"MEAN_MOTION_DDOT":0},{"OBJECT_NAME":"STARLINK-36782","OBJECT_ID":"2026-032J","EPOCH":"2026-03-09T22:00:01.999584","MEAN_MOTION":15.75130534,"ECCENTRICITY":0.00014725,"INCLINATION":97.2843,"RA_OF_ASC_NODE":255.4896,"ARG_OF_PERICENTER":92.3069,"MEAN_ANOMALY":280.4194,"EPHEMERIS_TYPE":0,"CLASSIFICATION_TYPE":"U","NORAD_CAT_ID":67805,"ELEMENT_SET_NO":999,"REV_AT_EPOCH":481,"BSTAR":0.0011459406,"MEAN_MOTION_DOT":0.00173872,"MEAN_MOTION_DDOT":0}]
